OBJECT_NAME,OBJECT_ID,EPOCH,MEAN_MOTION,ECCENTRICITY,INCLINATION,RA_OF_ASC_NODE,ARG_OF_PERICENTER,MEAN_ANOMALY,EPHEMERIS_TYPE,CLASSIFICATION_TYPE,NORAD_CAT_ID,ELEMENT_SET_NO,REV_AT_EPOCH,BSTAR,MEAN_MOTION_DOT,MEAN_MOTION_DDOT
STARLINK-4786,2023-014C,2026-06-27T05:05:37.341600,14.98331156,.0003775,69.9998,148.2087,263.2128,96.8601,0,U,55393,999,18846,.4226E-4,.411E-5,0
STARLINK-5274,2023-014E,2026-06-27T04:53:36.402720,14.98323251,.0002988,69.9995,148.1588,268.6759,91.4058,0,U,55395,999,18846,.52001E-4,.527E-5,0
STARLINK-5283,2023-014F,2026-06-27T04:59:38.067072,14.98315486,.0004858,69.9961,148.1799,274.5508,85.5096,0,U,55396,999,18846,-.12545E-3,-.1589E-4,0
STARLINK-5224,2023-014G,2026-06-27T04:05:15.476064,14.98330218,.0003143,70.0000,128.5684,269.7916,90.2883,0,U,55397,999,18894,.57943E-4,.598E-5,0
STARLINK-5275,2023-014H,2026-06-27T05:23:39.301152,14.98339063,.000384,69.9996,148.2402,262.4961,97.5762,0,U,55398,999,18846,-.10288E-3,-.1321E-4,0
STARLINK-5276,2023-014J,2026-06-27T05:11:37.944960,14.98331347,.0003585,69.9995,148.2110,266.4089,93.6660,0,U,55399,999,18846,.35439E-4,.33E-5,0
STARLINK-5632,2023-014K,2026-06-27T03:59:32.912160,14.98318977,.0003752,69.9994,148.4332,271.7098,88.3631,0,U,55400,999,18845,.6689E-4,.705E-5,0
STARLINK-5076,2023-014L,2026-06-27T05:17:38.612256,14.98331033,.0003732,69.9996,148.2255,263.1157,96.9577,0,U,55401,999,18846,.31238E-4,.28E-5,0
STARLINK-5071,2023-014M,2026-06-27T04:11:34.278720,14.98328385,.0002956,69.9996,148.4676,269.5485,90.5335,0,U,55402,999,18845,-.33244E-4,-.49E-5,0
STARLINK-5597,2023-014N,2026-06-27T03:53:32.072064,14.98328554,.0003381,69.9996,148.4240,266.4735,93.6037,0,U,55403,999,18845,.11382E-4,.43E-6,0
STARLINK-5607,2023-014P,2026-06-27T04:23:35.284992,14.98330387,.0003255,69.9996,148.4975,267.9737,92.1049,0,U,55404,999,18845,.31973E-4,.288E-5,0
STARLINK-5623,2023-014Q,2026-06-27T04:05:33.295200,14.98329257,.0003734,69.9995,148.4531,262.9363,97.1371,0,U,55405,999,18845,.12229E-4,.53E-6,0
STARLINK-5630,2023-014R,2026-06-27T04:29:35.846016,14.98335296,.000346,69.9997,148.5130,266.4873,93.5890,0,U,55406,999,18845,-.2732E-4,-.419E-5,0
STARLINK-5019,2023-014S,2026-06-27T04:17:35.257920,14.98339116,.0002811,69.9995,148.4825,271.5761,88.5076,0,U,55407,999,18845,.73321E-4,.782E-5,0
STARLINK-5633,2023-014V,2026-06-27T05:23:59.962848,14.98326376,.0003488,69.9992,168.1101,266.3277,93.7484,0,U,55410,999,18797,.43233E-4,.423E-5,0
STARLINK-5605,2023-014W,2026-06-27T04:41:37.801824,14.98339901,.0003253,69.9998,148.5428,266.6752,93.4035,0,U,55411,999,18845,.85101E-4,.923E-5,0
STARLINK-5060,2023-014Y,2026-06-27T05:17:58.250112,14.98327704,.0003328,69.9993,168.0953,268.3290,91.7488,0,U,55413,999,18797,-.20079E-5,-.117E-5,0
STARLINK-5620,2023-014Z,2026-06-27T05:42:00.622080,14.98329473,.0003683,69.9995,168.1538,266.1335,93.9403,0,U,55414,999,18797,.12961E-4,.62E-6,0
STARLINK-5624,2023-014AB,2026-06-27T04:17:53.793312,14.98332769,.0003754,69.9994,168.3515,264.6733,95.3997,0,U,55416,999,18796,.60829E-5,-.21E-6,0
STARLINK-5030,2023-014AD,2026-06-27T04:29:55.198752,14.98330421,.0003794,69.9995,168.3809,268.8592,91.2132,0,U,55418,999,18796,.29359E-5,-.58E-6,0
STARLINK-5629,2023-014AE,2026-06-27T05:48:01.221120,14.98330471,.0003793,69.9995,168.1693,263.9998,96.0729,0,U,55419,999,18797,.37253E-4,.351E-5,0
STARLINK-5604,2023-014AF,2026-06-27T05:05:18.540096,14.98340218,.0003596,69.9995,128.3347,264.0963,95.9787,0,U,55420,999,18895,.10907E-3,.1209E-4,0
STARLINK-5598,2023-014AG,2026-06-27T04:23:56.093568,14.98325579,.0003719,69.9994,168.3667,266.6825,93.3908,0,U,55421,999,18796,.11173E-3,.124E-4,0
STARLINK-5006,2023-014AH,2026-06-27T05:29:59.182080,14.98329024,.0004061,69.9995,168.1209,262.2891,97.7807,0,U,55422,999,18797,.10164E-4,.28E-6,0
STARLINK-5068,2023-014AJ,2026-06-27T04:47:57.940224,14.98326425,.0003,69.9994,168.4242,267.7810,92.3005,0,U,55423,999,18796,-.16439E-4,-.289E-5,0
STARLINK-5615,2023-014AL,2026-06-27T04:35:56.083776,14.98329132,.0003203,69.9996,168.3962,265.7513,94.3280,0,U,55425,999,18796,-.17309E-4,-.3E-5,0
STARLINK-5638,2023-014AM,2026-06-27T04:59:58.549056,14.98329978,.0003357,69.9993,168.4548,268.6719,91.4056,0,U,55426,999,18796,-.45196E-5,-.147E-5,0
STARLINK-5064,2023-014AP,2026-06-27T05:11:59.474112,14.98328031,.000384,69.9989,168.4842,264.1007,95.9714,0,U,55428,999,18796,.58994E-4,.611E-5,0
STARLINK-5645,2023-014AQ,2026-06-27T04:54:01.120032,14.98307199,.0003845,69.9989,168.4404,273.8206,86.2513,0,U,55429,999,18796,-.29921E-3,-.3659E-4,0
STARLINK-5642,2023-014AR,2026-06-27T04:42:15.892128,14.98328952,.0003504,69.9990,188.2687,271.9780,88.0978,0,U,55430,999,18747,.16779E-5,-.73E-6,0
