STARLINK-4786           
1 55393U 23014C   26178.21223775  .00000411  00000+0  42260-4 0  9991
2 55393  69.9998 148.2087 0003775 263.2128  96.8601 14.98331156188461
STARLINK-5274           
1 55395U 23014E   26178.20389355  .00000527  00000+0  52001-4 0  9991
2 55395  69.9995 148.1588 0002988 268.6759  91.4058 14.98323251188463
STARLINK-5283           
1 55396U 23014F   26178.20807948 -.00001589  00000+0 -12545-3 0  9994
2 55396  69.9961 148.1799 0004858 274.5508  85.5096 14.98315486188464
STARLINK-5224           
1 55397U 23014G   26178.17031801  .00000598  00000+0  57943-4 0  9997
2 55397  70.0000 128.5684 0003143 269.7916  90.2883 14.98330218188942
STARLINK-5275           
1 55398U 23014H   26178.22476043 -.00001321  00000+0 -10288-3 0  9992
2 55398  69.9996 148.2402 0003840 262.4961  97.5762 14.98339063188465
STARLINK-5276           
1 55399U 23014J   26178.21641140  .00000330  00000+0  35439-4 0  9997
2 55399  69.9995 148.2110 0003585 266.4089  93.6660 14.98331347188463
STARLINK-5632           
1 55400U 23014K   26178.16635315  .00000705  00000+0  66890-4 0  9992
2 55400  69.9994 148.4332 0003752 271.7098  88.3631 14.98318977188450
STARLINK-5076           
1 55401U 23014L   26178.22058579  .00000280  00000+0  31238-4 0  9997
2 55401  69.9996 148.2255 0003732 263.1157  96.9577 14.98331033188467
STARLINK-5071           
1 55402U 23014M   26178.17470230 -.00000490  00000+0 -33244-4 0  9998
2 55402  69.9996 148.4676 0002956 269.5485  90.5335 14.98328385188455
STARLINK-5597           
1 55403U 23014N   26178.16217676  .00000043  00000+0  11382-4 0  9992
2 55403  69.9996 148.4240 0003381 266.4735  93.6037 14.98328554188451
STARLINK-5607           
1 55404U 23014P   26178.18304728  .00000288  00000+0  31973-4 0  9999
2 55404  69.9996 148.4975 0003255 267.9737  92.1049 14.98330387188459
STARLINK-5623           
1 55405U 23014Q   26178.17052425  .00000053  00000+0  12229-4 0  9996
2 55405  69.9995 148.4531 0003734 262.9363  97.1371 14.98329257188456
STARLINK-5630           
1 55406U 23014R   26178.18722044 -.00000419  00000+0 -27320-4 0  9995
2 55406  69.9997 148.5130 0003460 266.4873  93.5890 14.98335296188452
STARLINK-5019           
1 55407U 23014S   26178.17888030  .00000782  00000+0  73321-4 0  9996
2 55407  69.9995 148.4825 0002811 271.5761  88.5076 14.98339116188458
STARLINK-5633           
1 55410U 23014V   26178.22499957  .00000423  00000+0  43233-4 0  9993
2 55410  69.9992 168.1101 0003488 266.3277  93.7484 14.98326376187971
STARLINK-5605           
1 55411U 23014W   26178.19557641  .00000923  00000+0  85101-4 0  9990
2 55411  69.9998 148.5428 0003253 266.6752  93.4035 14.98339901188454
STARLINK-5060           
1 55413U 23014Y   26178.22081308 -.00000117  00000+0 -20079-5 0  9999
2 55413  69.9993 168.0953 0003328 268.3290  91.7488 14.98327704187977
STARLINK-5620           
1 55414U 23014Z   26178.23750720  .00000062  00000+0  12961-4 0  9999
2 55414  69.9995 168.1538 0003683 266.1335  93.9403 14.98329473187976
STARLINK-5624           
1 55416U 23014AB  26178.17909483 -.00000021  00000+0  60829-5 0  9999
2 55416  69.9994 168.3515 0003754 264.6733  95.3997 14.98332769187963
STARLINK-5030           
1 55418U 23014AD  26178.18744443 -.00000058  00000+0  29359-5 0  9998
2 55418  69.9995 168.3809 0003794 268.8592  91.2132 14.98330421187964
STARLINK-5629           
1 55419U 23014AE  26178.24168080  .00000351  00000+0  37253-4 0  9999
2 55419  69.9995 168.1693 0003793 263.9998  96.0729 14.98330471187970
STARLINK-5604           
1 55420U 23014AF  26178.21202014  .00001209  00000+0  10907-3 0  9993
2 55420  69.9995 128.3347 0003596 264.0963  95.9787 14.98340218188952
STARLINK-5598           
1 55421U 23014AG  26178.18328812  .00001240  00000+0  11173-3 0  9996
2 55421  69.9994 168.3667 0003719 266.6825  93.3908 14.98325579187963
STARLINK-5006           
1 55422U 23014AH  26178.22915720  .00000028  00000+0  10164-4 0  9995
2 55422  69.9995 168.1209 0004061 262.2891  97.7807 14.98329024187977
STARLINK-5068           
1 55423U 23014AJ  26178.19997616 -.00000289  00000+0 -16439-4 0  9998
2 55423  69.9994 168.4242 0003000 267.7810  92.3005 14.98326425187962
STARLINK-5615           
1 55425U 23014AL  26178.19162134 -.00000300  00000+0 -17309-4 0  9990
2 55425  69.9996 168.3962 0003203 265.7513  94.3280 14.98329132187962
STARLINK-5638           
1 55426U 23014AM  26178.20831654 -.00000147  00000+0 -45196-5 0  9998
2 55426  69.9993 168.4548 0003357 268.6719  91.4056 14.98329978187968
STARLINK-5064           
1 55428U 23014AP  26178.21666058  .00000611  00000+0  58994-4 0  9998
2 55428  69.9989 168.4842 0003840 264.1007  95.9714 14.98328031187969
STARLINK-5645           
1 55429U 23014AQ  26178.20417963 -.00003659  00000+0 -29921-3 0  9991
2 55429  69.9989 168.4404 0003845 273.8206  86.2513 14.98307199187969
STARLINK-5642           
1 55430U 23014AR  26178.19601727 -.00000073  00000+0  16779-5 0  9999
2 55430  69.9990 188.2687 0003504 271.9780  88.0978 14.98328952187475
